{
    "links": {
        "self": "http://www.neowsapp.com/rest/v1/neo/3799280?api_key=iIulBulltgU6a56xZRHN4H3l9WmuAYTsLGpBGhQ2"
    },
    "id": "3799280",
    "neo_reference_id": "3799280",
    "name": "(2018 CF2)",
    "designation": "2018 CF2",
    "nasa_jpl_url": "http://ssd.jpl.nasa.gov/sbdb.cgi?sstr=3799280",
    "absolute_magnitude_h": 28.0,
    "estimated_diameter": {
        "kilometers": {
            "estimated_diameter_min": 0.0066765941,
            "estimated_diameter_max": 0.0149293183
        },
        "meters": {
            "estimated_diameter_min": 6.676594135,
            "estimated_diameter_max": 14.9293183439
        },
        "miles": {
            "estimated_diameter_min": 0.004148642,
            "estimated_diameter_max": 0.0092766455
        },
        "feet": {
            "estimated_diameter_min": 21.9048371017,
            "estimated_diameter_max": 48.9807047955
        }
    },
    "is_potentially_hazardous_asteroid": false,
    "close_approach_data": [
        {
            "close_approach_date": "2018-02-06",
            "close_approach_date_full": "2018-Feb-06 19:16",
            "epoch_date_close_approach": 1517944560000,
            "relative_velocity": {
                "kilometers_per_second": "13.5409237118",
                "kilometers_per_hour": "48747.3253624786",
                "miles_per_hour": "30289.6922509245"
            },
            "miss_distance": {
                "astronomical": "0.0006497863",
                "lunar": "0.2527668707",
                "kilometers": "97206.646435181",
                "miles": "60401.4092442578"
            },
            "orbiting_body": "Earth"
        },
        {
            "close_approach_date": "2018-02-06",
            "close_approach_date_full": "2018-Feb-06 22:46",
            "epoch_date_close_approach": 1517957160000,
            "relative_velocity": {
                "kilometers_per_second": "13.9307210223",
                "kilometers_per_hour": "50150.5956801691",
                "miles_per_hour": "31161.629854714"
            },
            "miss_distance": {
                "astronomical": "0.0020378473",
                "lunar": "0.7927225997",
                "kilometers": "304857.615465251",
                "miles": "189429.7382764238"
            },
            "orbiting_body": "Moon"
        },
        {
            "close_approach_date": "2023-01-23",
            "close_approach_date_full": "2023-Jan-23 22:00",
            "epoch_date_close_approach": 1674511200000,
            "relative_velocity": {
                "kilometers_per_second": "11.666409419",
                "kilometers_per_hour": "41999.0739085346",
                "miles_per_hour": "26096.5912294448"
            },
            "miss_distance": {
                "astronomical": "0.1113555421",
                "lunar": "43.3173058769",
                "kilometers": "16658551.910855327",
                "miles": "10351144.1684724326"
            },
            "orbiting_body": "Earth"
        }
    ],
    "orbital_data": {
        "orbit_id": "1",
        "orbit_determination_date": "2018-02-10 13:42:03",
        "first_observation_date": "2018-02-07",
        "last_observation_date": "2018-02-09",
        "data_arc_in_days": 2,
        "observations_used": 40,
        "orbit_uncertainty": "7",
        "minimum_orbit_intersection": ".0024161",
        "jupiter_tisserand_invariant": "3.816",
        "epoch_osculation": "2459000.5",
        "eccentricity": ".506181790612646",
        "semi_major_axis": "1.836926233439395",
        "inclination": "16.30424218029442",
        "ascending_node_longitude": "137.5933588589614",
        "orbital_period": "909.3603235608477",
        "perihelion_distance": ".9071076233736987",
        "perihelion_argument": "320.33846797004",
        "aphelion_distance": "2.766744843505091",
        "perihelion_time": "2459036.128163444368",
        "mean_anomaly": "345.8954272496208",
        "mean_motion": ".3958826778260152",
        "equinox": "J2000",
        "orbit_class": {
            "orbit_class_type": "APO",
            "orbit_class_description": "Near-Earth asteroid orbits which cross the Earth’s orbit similar to that of 1862 Apollo",
            "orbit_class_range": "a (semi-major axis) > 1.0 AU; q (perihelion) < 1.017 AU"
        }
    },
    "is_sentry_object": false
}